SBSS (USA 216)          
1 37168U 10048A   26068.88624904  .00004946  00000+0  24191-3 0  9993
2 37168  97.7474 312.3885 0082264 184.8326 306.5835 15.15724210837421
STARLINK-31480          
1 59306U 24056L   26068.47953038 -.00000732  00000+0 -17054-4 0  9995
2 59306  43.0030 231.7654 0002248 267.0952  92.9642 15.27570263111126
